{
  "type": "FeatureCollection",
  "features": [
    {
      "type": "Feature",
      "properties": {
        "OBJECT_NAME": "COSMOS 2251 DEB",
        "OBJECT_ID": "1993-036BWP",
        "EPOCH": "2025-11-27T15:38:05.976384",
        "MEAN_MOTION": 14.58545467,
        "ECCENTRICITY": 0.00188719,
        "INCLINATION": 74.0352,
        "RA_OF_ASC_NODE": 103.4644,
        "ARG_OF_PERICENTER": 255.5323,
        "MEAN_ANOMALY": 104.3748,
        "EPHEMERIS_TYPE": 0,
        "CLASSIFICATION_TYPE": "U",
        "NORAD_CAT_ID": 40810,
        "ELEMENT_SET_NO": 999,
        "REV_AT_EPOCH": 61463,
        "BSTAR": 0.00092677855,
        "MEAN_MOTION_DOT": 4.292e-05,
        "MEAN_MOTION_DDOT": 0,
        "norad_id": 40810,
        "name": "COSMOS 2251 DEB",
        "group": "cosmos-2251-debris",
        "longitude_deg": NaN,
        "latitude_deg": NaN,
        "alt_km": NaN,
        "orbit_class": "HEO",
        "timestamp": "2025-11-30T04:57:05.908220+00:00"
      },
      "geometry": {
        "type": "Point",
        "coordinates": [
          NaN,
          NaN
        ]
      }
    },
    {
      "type": "Feature",
      "properties": {
        "OBJECT_NAME": "COSMOS 2251 DEB",
        "OBJECT_ID": "1993-036BWT",
        "EPOCH": "2025-11-20T03:43:01.521408",
        "MEAN_MOTION": 14.51331868,
        "ECCENTRICITY": 0.00421547,
        "INCLINATION": 74.0444,
        "RA_OF_ASC_NODE": 120.6924,
        "ARG_OF_PERICENTER": 247.0658,
        "MEAN_ANOMALY": 112.6052,
        "EPHEMERIS_TYPE": 0,
        "CLASSIFICATION_TYPE": "U",
        "NORAD_CAT_ID": 46271,
        "ELEMENT_SET_NO": 999,
        "REV_AT_EPOCH": 84314,
        "BSTAR": 0.00037245006,
        "MEAN_MOTION_DOT": 1.472e-05,
        "MEAN_MOTION_DDOT": 0,
        "norad_id": 46271,
        "name": "COSMOS 2251 DEB",
        "group": "cosmos-2251-debris",
        "longitude_deg": NaN,
        "latitude_deg": NaN,
        "alt_km": NaN,
        "orbit_class": "HEO",
        "timestamp": "2025-11-30T04:57:05.908225+00:00"
      },
      "geometry": {
        "type": "Point",
        "coordinates": [
          NaN,
          NaN
        ]
      }
    },
    {
      "type": "Feature",
      "properties": {
        "OBJECT_NAME": "COSMOS 2251 DEB",
        "OBJECT_ID": "1993-036BWU",
        "EPOCH": "2025-11-27T20:37:49.076256",
        "MEAN_MOTION": 14.50926548,
        "ECCENTRICITY": 0.01032827,
        "INCLINATION": 73.9144,
        "RA_OF_ASC_NODE": 24.5566,
        "ARG_OF_PERICENTER": 307.3694,
        "MEAN_ANOMALY": 51.8093,
        "EPHEMERIS_TYPE": 0,
        "CLASSIFICATION_TYPE": "U",
        "NORAD_CAT_ID": 46430,
        "ELEMENT_SET_NO": 999,
        "REV_AT_EPOCH": 79467,
        "BSTAR": 0.0020948934,
        "MEAN_MOTION_DOT": 8.844e-05,
        "MEAN_MOTION_DDOT": 0,
        "norad_id": 46430,
        "name": "COSMOS 2251 DEB",
        "group": "cosmos-2251-debris",
        "longitude_deg": NaN,
        "latitude_deg": NaN,
        "alt_km": NaN,
        "orbit_class": "HEO",
        "timestamp": "2025-11-30T04:57:05.908244+00:00"
      },
      "geometry": {
        "type": "Point",
        "coordinates": [
          NaN,
          NaN
        ]
      }
    },
    {
      "type": "Feature",
      "properties": {
        "OBJECT_NAME": "COSMOS 2251 DEB",
        "OBJECT_ID": "1993-036BWW",
        "EPOCH": "2025-11-27T18:14:15.472320",
        "MEAN_MOTION": 13.36590206,
        "ECCENTRICITY": 0.04736106,
        "INCLINATION": 73.8709,
        "RA_OF_ASC_NODE": 134.8972,
        "ARG_OF_PERICENTER": 254.8276,
        "MEAN_ANOMALY": 119.6249,
        "EPHEMERIS_TYPE": 0,
        "CLASSIFICATION_TYPE": "U",
        "NORAD_CAT_ID": 46432,
        "ELEMENT_SET_NO": 999,
        "REV_AT_EPOCH": 66766,
        "BSTAR": 0.00093134132,
        "MEAN_MOTION_DOT": 8.92e-06,
        "MEAN_MOTION_DDOT": 0,
        "norad_id": 46432,
        "name": "COSMOS 2251 DEB",
        "group": "cosmos-2251-debris",
        "longitude_deg": NaN,
        "latitude_deg": NaN,
        "alt_km": NaN,
        "orbit_class": "HEO",
        "timestamp": "2025-11-30T04:57:05.908251+00:00"
      },
      "geometry": {
        "type": "Point",
        "coordinates": [
          NaN,
          NaN
        ]
      }
    },
    {
      "type": "Feature",
      "properties": {
        "OBJECT_NAME": "COSMOS 2251 DEB",
        "OBJECT_ID": "1993-036BXC",
        "EPOCH": "2025-11-17T21:31:07.512672",
        "MEAN_MOTION": 14.5196277,
        "ECCENTRICITY": 0.01352915,
        "INCLINATION": 73.9803,
        "RA_OF_ASC_NODE": 6.1844,
        "ARG_OF_PERICENTER": 200.2168,
        "MEAN_ANOMALY": 339.213,
        "EPHEMERIS_TYPE": 0,
        "CLASSIFICATION_TYPE": "U",
        "NORAD_CAT_ID": 47048,
        "ELEMENT_SET_NO": 999,
        "REV_AT_EPOCH": 59329,
        "BSTAR": 0.00165347,
        "MEAN_MOTION_DOT": 7.499e-05,
        "MEAN_MOTION_DDOT": 0,
        "norad_id": 47048,
        "name": "COSMOS 2251 DEB",
        "group": "cosmos-2251-debris",
        "longitude_deg": NaN,
        "latitude_deg": NaN,
        "alt_km": NaN,
        "orbit_class": "HEO",
        "timestamp": "2025-11-30T04:57:05.908262+00:00"
      },
      "geometry": {
        "type": "Point",
        "coordinates": [
          NaN,
          NaN
        ]
      }
    },
    {
      "type": "Feature",
      "properties": {
        "OBJECT_NAME": "COSMOS 2251 DEB",
        "OBJECT_ID": "1993-036BXF",
        "EPOCH": "2025-11-19T23:37:11.332416",
        "MEAN_MOTION": 13.67006805,
        "ECCENTRICITY": 0.03414101,
        "INCLINATION": 74.1022,
        "RA_OF_ASC_NODE": 220.7707,
        "ARG_OF_PERICENTER": 339.2737,
        "MEAN_ANOMALY": 35.2777,
        "EPHEMERIS_TYPE": 0,
        "CLASSIFICATION_TYPE": "U",
        "NORAD_CAT_ID": 47051,
        "ELEMENT_SET_NO": 999,
        "REV_AT_EPOCH": 59627,
        "BSTAR": 0.0015185315,
        "MEAN_MOTION_DOT": 1.877e-05,
        "MEAN_MOTION_DDOT": 0,
        "norad_id": 47051,
        "name": "COSMOS 2251 DEB",
        "group": "cosmos-2251-debris",
        "longitude_deg": NaN,
        "latitude_deg": NaN,
        "alt_km": NaN,
        "orbit_class": "HEO",
        "timestamp": "2025-11-30T04:57:05.908268+00:00"
      },
      "geometry": {
        "type": "Point",
        "coordinates": [
          NaN,
          NaN
        ]
      }
    },
    {
      "type": "Feature",
      "properties": {
        "OBJECT_NAME": "COSMOS 2251 DEB",
        "OBJECT_ID": "1993-036BXG",
        "EPOCH": "2025-11-28T09:00:05.547744",
        "MEAN_MOTION": 14.3544924,
        "ECCENTRICITY": 0.00577175,
        "INCLINATION": 74.0492,
        "RA_OF_ASC_NODE": 6.6564,
        "ARG_OF_PERICENTER": 85.0476,
        "MEAN_ANOMALY": 296.9714,
        "EPHEMERIS_TYPE": 0,
        "CLASSIFICATION_TYPE": "U",
        "NORAD_CAT_ID": 47052,
        "ELEMENT_SET_NO": 999,
        "REV_AT_EPOCH": 61583,
        "BSTAR": 0.00023932753,
        "MEAN_MOTION_DOT": 6.75e-06,
        "MEAN_MOTION_DDOT": 0,
        "norad_id": 47052,
        "name": "COSMOS 2251 DEB",
        "group": "cosmos-2251-debris",
        "longitude_deg": NaN,
        "latitude_deg": NaN,
        "alt_km": NaN,
        "orbit_class": "HEO",
        "timestamp": "2025-11-30T04:57:05.908274+00:00"
      },
      "geometry": {
        "type": "Point",
        "coordinates": [
          NaN,
          NaN
        ]
      }
    }
  ]
}