COSMOS 2251 DEB         
1 40810U 93036BWP 25331.65145806  .00004292  00000+0  92678-3 0  9994
2 40810  74.0352 103.4644 0018871 255.5323 104.3748 14.58545467614634
COSMOS 2251 DEB         
1 46271U 93036BWT 25324.15487872  .00001472  00000+0  37245-3 0  9996
2 46271  74.0444 120.6924 0042154 247.0658 112.6052 14.51331868843144
COSMOS 2251 DEB         
1 46430U 93036BWU 25331.85959579  .00008844  00000+0  20949-2 0  9998
2 46430  73.9144  24.5566 0103282 307.3694  51.8093 14.50926548794676
COSMOS 2251 DEB         
1 46432U 93036BWW 25331.75990130  .00000892  00000+0  93134-3 0  9999
2 46432  73.8709 134.8972 0473610 254.8276 119.6249 13.36590206667662
COSMOS 2251 DEB         
1 47048U 93036BXC 25321.89661473  .00007499  00000+0  16535-2 0  9991
2 47048  73.9803   6.1844 0135291 200.2168 339.2130 14.51962770593299
COSMOS 2251 DEB         
1 47051U 93036BXF 25323.98415894  .00001877  00000+0  15185-2 0  9995
2 47051  74.1022 220.7707 0341410 339.2737  35.2777 13.67006805596273
COSMOS 2251 DEB         
1 47052U 93036BXG 25332.37506421  .00000675  00000+0  23933-3 0  9992
2 47052  74.0492   6.6564 0057717  85.0476 296.9714 14.35449240615837
